     2.10           NAVIGATION DATA                         RINEX VERSION / TYPE
SPIDER V4,0,0,3554                      2015 04 17 00:49    PGM / RUN BY / DATE 
   1.6764D-08  0.0000D+00 -1.1921D-07  5.9605D-08           ION ALPHA           
   1.2288D+05 -3.2768D+04 -1.9661D+05 -6.5536D+04           ION BETA            
    2.793967723846D-09 8.881784197001D-16   233472     1833 DELTA-UTC: A0,A1,T,W
    16                                                      LEAP SECONDS        
                                                            END OF HEADER       
 1 15 02 20 09 59 44.0-8.807517588139D-06 4.547473508865D-13 0.000000000000D+00
    1.200000000000D+01-1.171250000000D+02 4.513045048782D-09-2.993359174476D+00
   -6.051734089851D-06 3.879165742546D-03 1.119635999203D-05 5.153673553467D+03
    4.679840000000D+05-2.607703208923D-08-1.745101956787D-01-2.421438694000D-08
    9.623004173893D-01 1.631250000000D+02 4.053176161799D-01-8.028548492689D-09
   -5.332365105026D-10 1.000000000000D+00 1.832000000000D+03 0.000000000000D+00
    2.000000000000D+00 0.000000000000D+00 5.587935447693D-09 1.200000000000D+01
    4.679840000000D+05 0.000000000000D+00
 2 15 02 21 00 00  0.0 5.491948686540D-04 2.273736754432D-12 0.000000000000D+00
    1.700000000000D+01-1.051250000000D+02 5.019137550022D-09-1.342166151179D+00
   -5.438923835754D-06 1.441307889763D-02 8.113682270050D-06 5.153770631790D+03
    5.184000000000D+05 4.656612873077D-07-2.103795498956D-01-2.793967723846D-08
    9.408612783288D-01 2.106562500000D+02-2.316987753166D+00-8.358562730848D-09
   -5.428797411611D-10 1.000000000000D+00 1.832000000000D+03 0.000000000000D+00
    2.000000000000D+00 0.000000000000D+00-2.048909664154D-08 1.700000000000D+01
    5.184000000000D+05 0.000000000000D+00
 3 15 02 20 11 59 44.0 2.191648818552D-04 2.000888343900D-11 0.000000000000D+00
    5.000000000000D+00 7.653125000000D+01 4.433398981263D-09 3.564597013716D-01
    3.868713974953D-06 9.523696498945D-04 1.231394708157D-05 5.153750841141D+03
    4.751840000000D+05-3.725290298462D-09 8.654467146552D-01 3.725290298462D-08
    9.595222203862D-01 1.385625000000D+02-2.954077758407D+00-8.037834398067D-09
    4.928776831115D-10 1.000000000000D+00 1.832000000000D+03 0.000000000000D+00
    2.000000000000D+00 0.000000000000D+00 1.396983861923D-09 5.000000000000D+00
    4.751840000000D+05 0.000000000000D+00
 4 15 02 20 10 00  0.0-7.525552064180D-06-6.821210263297D-13 0.000000000000D+00
    9.000000000000D+00-1.200000000000D+02 4.951277610132D-09 3.093876215723D+00
   -6.234273314476D-06 1.104298187420D-02 1.070648431778D-05 5.153733947754D+03
    4.680000000000D+05 1.229345798492D-07-1.945718174286D-01-1.806765794754D-07
    9.399299861424D-01 1.572812500000D+02 1.052724074366D+00-8.195341294481D-09
   -5.314507167675D-10 1.000000000000D+00 1.832000000000D+03 0.000000000000D+00
    2.000000000000D+00 0.000000000000D+00-6.519258022308D-09 9.000000000000D+00
    4.680000000000D+05 0.000000000000D+00
 5 15 02 21 00 00  0.0-2.763723023236D-04 5.002220859751D-12 0.000000000000D+00
    3.400000000000D+01 4.681250000000D+01 4.551975241185D-09 1.010882863260D+00
    2.564862370491D-06 4.026692244224D-03 1.279823482037D-05 5.153782680511D+03
    5.184000000000D+05-4.284083843231D-08 8.593207715308D-01 4.842877388000D-08
    9.468176473040D-01 1.250312500000D+02 4.179775161327D-01-8.062478684678D-09
    4.089455996059D-10 1.000000000000D+00 1.832000000000D+03 0.000000000000D+00
    2.000000000000D+00 0.000000000000D+00-1.071020960808D-08 3.400000000000D+01
    5.184000000000D+05 0.000000000000D+00
 6 15 02 20 22 00  0.0 8.784793317318D-05 1.114131009672D-11 0.000000000000D+00
    5.900000000000D+01-1.103750000000D+02 4.450185553395D-09-4.850743416134D-01
   -5.701556801796D-06 3.487337380648D-04 9.048730134964D-06 5.153702714920D+03
    5.112000000000D+05 5.774199962616D-08-1.833854226932D-01-1.471489667892D-07
    9.621752150084D-01 2.077812500000D+02 2.693022989571D+00-8.120338179651D-09
   -5.093069299633D-10 1.000000000000D+00 1.832000000000D+03 0.000000000000D+00
    2.000000000000D+00 0.000000000000D+00 4.656612873077D-09 5.900000000000D+01
    5.112000000000D+05 0.000000000000D+00
 7 15 02 20 15 59 44.0 4.418515600264D-04 3.069544618484D-12 0.000000000000D+00
    4.100000000000D+01-6.721875000000D+01 4.205175319072D-09-4.184382475526D-01
   -3.702938556671D-06 8.026434108615D-03 1.057237386703D-05 5.153737680435D+03
    4.895840000000D+05 8.381903171539D-08 2.985414489171D+00 1.359730958939D-07
    9.714346072364D-01 1.813125000000D+02-2.752791403006D+00-8.029262588138D-09
   -7.046722094728D-10 1.000000000000D+00 1.832000000000D+03 0.000000000000D+00
    2.000000000000D+00 0.000000000000D+00-1.117587089539D-08 4.100000000000D+01
    4.895840000000D+05 0.000000000000D+00
 9 15 02 20 14 00  0.0-9.252037853003D-05-1.114131009672D-11 0.000000000000D+00
    1.100000000000D+01 1.112500000000D+01 5.195930796731D-09 9.263085510978D-01
    4.433095455170D-07 3.810764756054D-04 2.909451723099D-06 5.153640628815D+03
    4.824000000000D+05-1.117587089539D-08 1.909793976733D+00-2.235174179077D-08
    9.577440990517D-01 3.198125000000D+02 2.219209268231D+00-8.636074078083D-09
   -4.071598266875D-11 1.000000000000D+00 1.832000000000D+03 0.000000000000D+00
    2.000000000000D+00 0.000000000000D+00 4.656612873077D-10 1.100000000000D+01
    4.824000000000D+05 0.000000000000D+00
10 15 02 20 16 00  0.0-1.642084680498D-04-1.705302565824D-12 0.000000000000D+00
    9.100000000000D+01 7.821875000000D+01 4.803771602724D-09-2.830920381917D+00
    3.740191459656D-06 1.454799191561D-02 1.250393688679D-05 5.153671758652D+03
    4.896000000000D+05 1.061707735062D-07 8.752056070951D-01-1.825392246246D-07
    9.415805527237D-01 1.251562500000D+02 9.225043364999D-01-7.989618744375D-09
    5.710952266647D-10 1.000000000000D+00 1.832000000000D+03 0.000000000000D+00
    2.800000000000D+00 0.000000000000D+00-3.259629011154D-09 9.100000000000D+01
    4.896000000000D+05 0.000000000000D+00
11 15 02 19 08 00  0.0-5.588885396719D-04-2.614797267597D-12 0.000000000000D+00
    1.310000000000D+02-1.570312500000D+02 6.171328337246D-09 1.699938921005D+00
   -8.400529623032D-06 1.561619166750D-02 7.389113306999D-06 5.153734506607D+03
    3.744000000000D+05-2.607703208923D-08-5.172619289384D-01-4.004687070847D-07
    8.926770109635D-01 2.034687500000D+02 1.383272447833D+00-9.013946922209D-09
   -5.096640887103D-10 1.000000000000D+00 1.832000000000D+03 0.000000000000D+00
    2.800000000000D+00 0.000000000000D+00-1.210719347000D-08 1.310000000000D+02
    3.744000000000D+05 0.000000000000D+00
12 15 02 21 00 00  0.0 2.709422260523D-04 2.955857780762D-12 0.000000000000D+00
    2.100000000000D+01 6.559375000000D+01 3.717654850632D-09-2.964123115077D+00
    3.326684236526D-06 5.318007199094D-03 1.218542456627D-05 5.153736249924D+03
    5.184000000000D+05-6.705522537231D-08-2.231495413095D+00-1.210719347000D-07
    9.893360066158D-01 1.566562500000D+02 5.149858902694D-01-7.586387518188D-09
    3.253707026030D-10 1.000000000000D+00 1.832000000000D+03 0.000000000000D+00
    2.000000000000D+00 0.000000000000D+00-1.257285475731D-08 2.100000000000D+01
    5.184000000000D+05 0.000000000000D+00
13 15 02 20 19 59 44.0-9.004678577185D-05-3.524291969370D-12 0.000000000000D+00
    2.500000000000D+01 8.843750000000D+00 4.858773827721D-09 2.434549225159D+00
    3.986060619354D-07 5.352965439670D-03 3.099441528320D-06 5.153680086136D+03
    5.039840000000D+05 1.490116119385D-07 2.023294162849D+00-2.607703208923D-08
    9.745542800404D-01 3.261250000000D+02 2.062141275113D+00-8.402849971390D-09
   -4.964492358872D-11 1.000000000000D+00 1.832000000000D+03 0.000000000000D+00
    2.000000000000D+00 0.000000000000D+00-1.164153218269D-08 2.500000000000D+01
    5.039840000000D+05 0.000000000000D+00
14 15 02 20 23 59 44.0 8.554058149457D-05-3.524291969370D-12 0.000000000000D+00
    1.200000000000D+01 1.915625000000D+01 5.024137994525D-09 8.091265893131D-02
    8.847564458847D-07 7.746425108053D-03 3.175809979439D-06 5.153781946182D+03
    5.183840000000D+05-4.656612873077D-08 1.989199734953D+00 5.587935447693D-08
    9.670437932099D-01 3.234687500000D+02-1.973565924428D+00-8.680361318625D-09
    9.071806500449D-11 1.000000000000D+00 1.832000000000D+03 0.000000000000D+00
    2.000000000000D+00 0.000000000000D+00-9.313225746155D-09 1.200000000000D+01
    5.183840000000D+05 0.000000000000D+00
15 15 02 20 20 00  0.0-2.334453165531D-04-2.273736754432D-12 0.000000000000D+00
    5.900000000000D+01 3.034375000000D+01 5.839885908188D-09-2.651090562597D+00
    1.464039087296D-06 7.086720084772D-03 2.710148692131D-06 5.153589019775D+03
    5.040000000000D+05-3.725290298462D-08 1.868309274375D+00-1.601874828339D-07
    9.336609345198D-01 3.156250000000D+02 3.793757776553D-01-8.864654787999D-09
    1.785788739106D-10 1.000000000000D+00 1.832000000000D+03 0.000000000000D+00
    2.000000000000D+00 0.000000000000D+00-1.071020960808D-08 5.900000000000D+01
    5.040000000000D+05 0.000000000000D+00
16 15 02 21 00 00  0.0-1.545427367091D-04 3.296918293927D-12 0.000000000000D+00
    7.700000000000D+01 8.421875000000D+01 3.807658632837D-09 1.187108432791D+00
    4.682689905167D-06 8.103977539577D-03 1.158006489277D-05 5.153754983902D+03
    5.184000000000D+05-2.048909664154D-08-2.212847924032D+00 1.266598701477D-07
    9.898805354462D-01 1.699062500000D+02 2.415380752932D-01-7.761037146281D-09
    2.392956943709D-10 1.000000000000D+00 1.832000000000D+03 0.000000000000D+00
    2.000000000000D+00 0.000000000000D+00-1.024454832077D-08 7.700000000000D+01
    5.184000000000D+05 0.000000000000D+00
